[{"OBJECT_NAME":"BRO-10","OBJECT_ID":"2023-174CD","EPOCH":"2026-03-09T23:34:33.500352","MEAN_MOTION":15.73235012,"ECCENTRICITY":0.00030107,"INCLINATION":97.3656,"RA_OF_ASC_NODE":162.3972,"ARG_OF_PERICENTER":146.5418,"MEAN_ANOMALY":213.6037,"EPHEMERIS_TYPE":0,"CLASSIFICATION_TYPE":"U","NORAD_CAT_ID":58331,"ELEMENT_SET_NO":999,"REV_AT_EPOCH":13076,"BSTAR":0.0013973225,"MEAN_MOTION_DOT":0.00196052,"MEAN_MOTION_DDOT":0},{"OBJECT_NAME":"STARLINK-11518 [DTC]","OBJECT_ID":"2024-254A","EPOCH":"2026-03-09T11:28:57.586656","MEAN_MOTION":15.70992254,"ECCENTRICITY":0.00021051,"INCLINATION":42.9984,"RA_OF_ASC_NODE":224.6467,"ARG_OF_PERICENTER":237.0903,"MEAN_ANOMALY":122.9763,"EPHEMERIS_TYPE":0,"CLASSIFICATION_TYPE":"U","NORAD_CAT_ID":62462,"ELEMENT_SET_NO":999,"REV_AT_EPOCH":6937,"BSTAR":0.0019649775,"MEAN_MOTION_DOT":0.00261447,"MEAN_MOTION_DDOT":0}]
